{
  "type": "FeatureCollection",
  "features": [
    {
      "type": "Feature",
      "properties": {
        "id": "A",
        "label": "Zone A · Whole playground"
      },
      "geometry": {
        "type": "Polygon",
        "coordinates": [
          [
            [
              -76.4962414,
              42.4503214
            ],
            [
              -76.4949773,
              42.4503214
            ],
            [
              -76.4949773,
              42.4513721
            ],
            [
              -76.4962414,
              42.4513721
            ],
            [
              -76.4962414,
              42.4503214
            ]
          ]
        ]
      }
    }
  ]
}
